NORAD_CAT_ID,OBJECT_NAME,OBJECT_TYPE,EPOCH,MEAN_MOTION,ECCENTRICITY,INCLINATION,RA_OF_ASC_NODE,ARG_OF_PERICENTER,MEAN_ANOMALY,BSTAR,MEAN_MOTION_DOT,MEAN_MOTION_DDOT,TLE_LINE0,TLE_LINE1,TLE_LINE2,SEMIMAJOR_AXIS,PERIOD,APOGEE,PERIGEE,DECAYED
53394.0,STARLINK-4544,PAYLOAD,2023-12-02 20:27:10,15.08851811,0.0001408,53.2165,230.0399,103.3982,256.7167,0.00021776,3.18e-05,0.0,0 STARLINK-4544,1 53394U 22097G   23336.85220278  .00003180  00000-0  21776-3 0  9993,2 53394  53.2165 230.0399 0001408 103.3982 256.7167 15.08851811 73195,6917.844,95.437,540.683,538.735,0.0
53394.0,STARLINK-4544,PAYLOAD,2023-12-02 22:02:33,15.08852001,0.0001687,53.216,229.7429,121.8018,238.3138,0.00017405,2.484e-05,0.0,0 STARLINK-4544,1 53394U 22097G   23336.91844099  .00002484  00000-0  17405-3 0  9993,2 53394  53.2160 229.7429 0001687 121.8018 238.3138 15.08852001 73852,6917.844,95.437,540.876,538.542,0.0
53394.0,STARLINK-4544,PAYLOAD,2023-12-03 02:48:42,15.08846741,0.0001498,53.2154,228.8513,116.0772,244.0374,3.8623e-05,3.27e-06,0.0,0 STARLINK-4544,1 53394U 22097G   23337.11716170  .00000327  00000-0  38623-4 0  9994,2 53394  53.2154 228.8513 0001498 116.0772 244.0374 15.08846741 73885,6917.86,95.437,540.761,538.688,0.0
53394.0,STARLINK-4544,PAYLOAD,2023-12-03 20:17:57,15.08838348,0.0001709,53.2161,225.5742,102.2979,257.8205,-0.00019833,-3.443e-05,0.0,0 STARLINK-4544,1 53394U 22097G   23337.84580539 -.00003443  00000-0 -19833-3 0  9997,2 53394  53.2161 225.5742 0001709 102.2979 257.8205 15.08838348 73342,6917.885,95.438,540.933,538.568,0.0
53394.0,STARLINK-4544,PAYLOAD,2023-12-04 02:39:31,15.08823006,0.0001855,53.2165,224.3876,113.7266,246.3921,0.00020868,3.033e-05,0.0,0 STARLINK-4544,1 53394U 22097G   23338.11077780  .00003033  00000-0  20868-3 0  9990,2 53394  53.2165 224.3876 0001855 113.7266 246.3921 15.08823006 73386,6917.932,95.439,541.081,538.514,0.0
53394.0,STARLINK-4544,PAYLOAD,2023-12-04 16:57:58,15.08835229,0.0001576,53.2172,221.7128,115.9611,244.1543,0.00010196,1.335e-05,0.0,0 STARLINK-4544,1 53394U 22097G   23338.70693241  .00001335  00000-0  10196-3 0  9997,2 53394  53.2172 221.7128 0001576 115.9611 244.1543 15.08835229 73479,6917.895,95.438,540.85,538.67,0.0
53394.0,STARLINK-4544,PAYLOAD,2023-12-04 23:19:31,15.08839236,0.0001575,53.2174,220.5236,112.1025,248.0135,0.0001424,1.979e-05,0.0,0 STARLINK-4544,1 53394U 22097G   23338.97188937  .00001979  00000-0  14240-3 0  9995,2 53394  53.2174 220.5236 0001575 112.1025 248.0135 15.08839236 74164,6917.883,95.438,540.837,538.658,0.0
53394.0,STARLINK-4544,PAYLOAD,2023-12-07 00:36:28,15.08836281,0.0001483,53.216,211.3057,106.0689,254.0466,1.006e-05,-1.28e-06,0.0,0 STARLINK-4544,1 53394U 22097G   23341.02533524 -.00000128  00000-0  10060-4 0  9994,2 53394  53.2160 211.3057 0001483 106.0689 254.0466 15.08836281 73827,6917.892,95.438,540.783,538.731,0.0
53394.0,STARLINK-4544,PAYLOAD,2023-12-08 00:27:15,15.0884093,0.0001431,53.2158,206.8453,104.5997,255.5153,6.1848e-05,6.97e-06,0.0,0 STARLINK-4544,1 53394U 22097G   23342.01893359  .00000697  00000-0  61848-4 0  9999,2 53394  53.2158 206.8453 0001431 104.5997 255.5153 15.08840930 74625,6917.878,95.437,540.732,538.753,0.0
53394.0,STARLINK-4544,PAYLOAD,2023-12-09 00:18:03,15.08840401,0.0001408,53.2165,202.3855,104.8619,255.2529,5.9756e-05,6.63e-06,0.0,0 STARLINK-4544,1 53394U 22097G   23343.01253605  .00000663  00000-0  59756-4 0  9992,2 53394  53.2165 202.3855 0001408 104.8619 255.2529 15.08840401 74120,6917.879,95.438,540.718,538.77,0.0
53394.0,STARLINK-4544,PAYLOAD,2023-12-10 00:08:49,15.08844645,0.0001533,53.2154,197.9239,96.6932,263.4235,6.1942e-05,6.98e-06,0.0,0 STARLINK-4544,1 53394U 22097G   23344.00613112  .00000698  00000-0  61942-4 0  9993,2 53394  53.2154 197.9239 0001533  96.6932 263.4235 15.08844645 74925,6917.866,95.437,540.792,538.671,0.0
53394.0,STARLINK-4544,PAYLOAD,2023-12-10 19:13:27,15.08841596,0.0001349,53.217,194.3523,94.5645,265.5501,3.7939e-05,3.16e-06,0.0,0 STARLINK-4544,1 53394U 22097G   23344.80101289  .00000316  00000-0  37939-4 0  9994,2 53394  53.2170 194.3523 0001349  94.5645 265.5501 15.08841596 74395,6917.876,95.437,540.674,538.807,0.0
53394.0,STARLINK-4544,PAYLOAD,2023-12-10 20:48:50,15.08842978,0.0001483,53.2168,194.0534,106.6421,253.4734,3.6772e-05,2.97e-06,0.0,0 STARLINK-4544,1 53394U 22097G   23344.86725151  .00000297  00000-0  36772-4 0  9992,2 53394  53.2168 194.0534 0001483 106.6421 253.4734 15.08842978 75050,6917.871,95.437,540.762,538.71,0.0
53394.0,STARLINK-4544,PAYLOAD,2023-12-11 19:04:14,15.08838087,0.0001531,53.2166,189.8947,100.9574,259.159,3.3312e-05,2.42e-06,0.0,0 STARLINK-4544,1 53394U 22097G   23345.79461504  .00000242  00000-0  33312-4 0  9991,2 53394  53.2166 189.8947 0001531 100.9574 259.1590 15.08838087 75192,6917.886,95.438,540.81,538.692,0.0
53394.0,STARLINK-4544,PAYLOAD,2023-12-12 20:30:24,15.08840693,0.0001543,53.2169,185.1371,101.4099,258.7067,6.877e-05,8.07e-06,0.0,0 STARLINK-4544,1 53394U 22097G   23346.85445285  .00000807  00000-0  68770-4 0  9990,2 53394  53.2169 185.1371 0001543 101.4099 258.7067 15.08840693 74702,6917.878,95.438,540.811,538.676,0.0
53394.0,STARLINK-4544,PAYLOAD,2023-12-13 18:45:48,15.08839384,0.0001608,53.217,180.9756,110.6962,249.4203,4.3853e-05,4.1e-06,0.0,0 STARLINK-4544,1 53394U 22097G   23347.78181482  .00000410  00000-0  43853-4 0  9994,2 53394  53.2170 180.9756 0001608 110.6962 249.4203 15.08839384 75498,6917.882,95.438,540.86,538.635,0.0
53394.0,STARLINK-4544,PAYLOAD,2023-12-14 20:11:59,15.08837228,0.0001453,53.2164,176.2154,94.4048,265.711,5.9849e-06,-1.93e-06,0.0,0 STARLINK-4544,1 53394U 22097G   23348.84165999 -.00000193  00000-0  59849-5 0  9999,2 53394  53.2164 176.2154 0001453  94.4048 265.7110 15.08837228 75003,6917.889,95.438,540.759,538.749,0.0
53394.0,STARLINK-4544,PAYLOAD,2023-12-15 20:02:46,15.08835137,0.0001457,53.2164,171.7559,83.1854,276.9304,4.3759e-05,4.08e-06,0.0,0 STARLINK-4544,1 53394U 22097G   23349.83526370  .00000408  00000-0  43759-4 0  9993,2 53394  53.2164 171.7559 0001457  83.1854 276.9304 15.08835137 75800,6917.895,95.438,540.768,538.752,0.0
53394.0,STARLINK-4544,PAYLOAD,2023-12-16 16:42:48,15.08823567,0.0001298,53.2165,167.8901,94.2205,265.8935,-4.3627e-05,-9.82e-06,0.0,0 STARLINK-4544,1 53394U 22097G   23350.69639356 -.00000982  00000-0 -43627-4 0  9991,2 53394  53.2165 167.8901 0001298  94.2205 265.8935 15.08823567 75287,6917.931,95.439,540.694,538.898,0.0
53394.0,STARLINK-4544,PAYLOAD,2023-12-17 14:58:11,15.08844664,0.0001526,53.2174,163.7256,50.7817,309.331,0.00010668,1.41e-05,0.0,0 STARLINK-4544,1 53394U 22097G   23351.62373952  .00001410  00000-0  10668-3 0  9995,2 53394  53.2174 163.7256 0001526  50.7817 309.3310 15.08844664 76075,6917.866,95.437,540.787,538.675,0.0
53394.0,STARLINK-4544,PAYLOAD,2023-12-17 18:08:57,15.0884728,0.0001493,53.2169,163.1316,77.1813,282.9346,0.000124,1.686e-05,0.0,0 STARLINK-4544,1 53394U 22097G   23351.75621630  .00001686  00000-0  12400-3 0  9999,2 53394  53.2169 163.1316 0001493  77.1813 282.9346 15.08847280 75444,6917.858,95.437,540.756,538.69,0.0
53394.0,STARLINK-4544,PAYLOAD,2023-12-18 14:48:58,15.08834201,0.0001343,53.217,159.2652,114.1301,245.9832,0.00021971,3.21e-05,0.0,0 STARLINK-4544,1 53394U 22097G   23352.61733804  .00003210  00000-0  21971-3 0  9990,2 53394  53.2170 159.2652 0001343 114.1301 245.9832 15.08834201 76228,6917.898,95.438,540.692,538.834,0.0
53394.0,STARLINK-4544,PAYLOAD,2023-12-18 17:59:43,15.0886515,0.0001484,53.2164,158.6702,78.009,282.1068,-0.00017679,-3.103e-05,0.0,0 STARLINK-4544,1 53394U 22097G   23352.74981343 -.00003103  00000-0 -17679-3 0  9990,2 53394  53.2164 158.6702 0001484  78.0090 282.1068 15.08865150 76242,6917.804,95.436,540.695,538.642,0.0
53394.0,STARLINK-4544,PAYLOAD,2023-12-19 14:39:44,15.08843312,0.0001388,53.2162,154.8038,95.3439,264.7711,1.7422e-05,-1.1e-07,0.0,0 STARLINK-4544,1 53394U 22097G   23353.61093646 -.00000011  00000-0  17422-4 0  9998,2 53394  53.2162 154.8038 0001388  95.3439 264.7711 15.08843312 76373,6917.87,95.437,540.695,538.775,0.0
53394.0,STARLINK-4544,PAYLOAD,2023-12-19 16:15:08,15.08842889,0.000135,53.2163,154.507,94.8934,265.2212,5.4692e-06,-2.01e-06,0.0,0 STARLINK-4544,1 53394U 22097G   23353.67717676 -.00000201  00000-0  54692-5 0  9992,2 53394  53.2163 154.5070 0001350  94.8934 265.2212 15.08842889 75739,6917.872,95.437,540.67,538.803,0.0
53394.0,STARLINK-4544,PAYLOAD,2023-12-20 16:05:55,15.08836345,0.0001265,53.2165,150.047,91.1451,268.9686,-1.057e-05,-4.56e-06,0.0,0 STARLINK-4544,1 53394U 22097G   23354.67078246 -.00000456  00000-0 -10570-4 0  9995,2 53394  53.2165 150.0470 0001265  91.1451 268.9686 15.08836345 75886,6917.892,95.438,540.632,538.881,0.0
53394.0,STARLINK-4544,PAYLOAD,2023-12-21 14:21:19,15.08832712,0.0001247,53.2168,145.8846,84.0979,276.0155,4.3281e-05,4.01e-06,0.0,0 STARLINK-4544,1 53394U 22097G   23355.59814674  .00000401  00000-0  43281-4 0  9993,2 53394  53.2168 145.8846 0001247  84.0979 276.0155 15.08832712 76677,6917.903,95.438,540.63,538.905,0.0
53394.0,STARLINK-4544,PAYLOAD,2023-12-21 15:56:42,15.08834314,0.0001263,53.2168,145.5875,82.039,278.0746,5.6235e-05,6.07e-06,0.0,0 STARLINK-4544,1 53394U 22097G   23355.66438578  .00000607  00000-0  56235-4 0  9997,2 53394  53.2168 145.5875 0001263  82.0390 278.0746 15.08834314 76688,6917.898,95.438,540.636,538.889,0.0
53394.0,STARLINK-4544,PAYLOAD,2023-12-22 14:12:06,15.08830956,0.000161,53.217,141.4243,68.9123,291.2041,4.7652e-06,-2.12e-06,0.0,0 STARLINK-4544,1 53394U 22097G   23356.59173859 -.00000212  00000-0  47652-5 0  9995,2 53394  53.2170 141.4243 0001610  68.9123 291.2041 15.08830956 76827,6917.908,95.438,540.887,538.659,0.0
53394.0,STARLINK-4544,PAYLOAD,2023-12-22 17:22:52,15.08826704,0.0001469,53.2174,140.8292,71.6849,288.4303,-3.5832e-05,-8.58e-06,0.0,0 STARLINK-4544,1 53394U 22097G   23356.72422216 -.00000858  00000-0 -35832-4 0  9997,2 53394  53.2174 140.8292 0001469  71.6849 288.4303 15.08826704 76191,6917.921,95.438,540.802,538.77,0.0
